{
  "links" : {
    "next" : "https://api.nasa.gov/neo/rest/v1/feed?start_date=2013-07-23&end_date=2013-07-23&detailed=true&api_key=t0TVs3DtDT2H8Oy2Zy8m2eVrNsAVKAexjcZXUckd",
    "prev" : "https://api.nasa.gov/neo/rest/v1/feed?start_date=2013-07-21&end_date=2013-07-21&detailed=true&api_key=t0TVs3DtDT2H8Oy2Zy8m2eVrNsAVKAexjcZXUckd",
    "self" : "https://api.nasa.gov/neo/rest/v1/feed?start_date=2013-07-22&end_date=2013-07-22&detailed=true&api_key=t0TVs3DtDT2H8Oy2Zy8m2eVrNsAVKAexjcZXUckd"
  },
  "element_count" : 7,
  "near_earth_objects" : {
    "2013-07-22" : [ {
      "links" : {
        "self" : "https://api.nasa.gov/neo/rest/v1/neo/3766966?api_key=t0TVs3DtDT2H8Oy2Zy8m2eVrNsAVKAexjcZXUckd"
      },
      "neo_reference_id" : "3766966",
      "name" : "(2017 BS5)",
      "nasa_jpl_url" : "http://ssd.jpl.nasa.gov/sbdb.cgi?sstr=3766966",
      "absolute_magnitude_h" : 24.1,
      "estimated_diameter" : {
        "kilometers" : {
          "estimated_diameter_min" : 0.040230458,
          "estimated_diameter_max" : 0.0899580388
        },
        "meters" : {
          "estimated_diameter_min" : 40.2304579834,
          "estimated_diameter_max" : 89.9580388169
        },
        "miles" : {
          "estimated_diameter_min" : 0.0249980399,
          "estimated_diameter_max" : 0.0558973165
        },
        "feet" : {
          "estimated_diameter_min" : 131.9896957704,
          "estimated_diameter_max" : 295.1379320721
        }
      },
      "is_potentially_hazardous_asteroid" : false,
      "close_approach_data" : [ {
        "close_approach_date" : "2013-07-22",
        "epoch_date_close_approach" : 1374476400000,
        "relative_velocity" : {
          "kilometers_per_second" : "14.8657342885",
          "kilometers_per_hour" : "53516.6434387393",
          "miles_per_hour" : "33253.1610300322"
        },
        "miss_distance" : {
          "astronomical" : "0.4855525407",
          "lunar" : "188.8799438477",
          "kilometers" : "72637632",
          "miles" : "45134928"
        },
        "orbiting_body" : "Earth"
      } ],
      "orbital_data" : {
        "orbit_id" : "21",
        "orbit_determination_date" : "2017-07-29 06:20:12",
        "orbit_uncertainty" : "1",
        "minimum_orbit_intersection" : ".00702408",
        "jupiter_tisserand_invariant" : "5.991",
        "epoch_osculation" : "2458000.5",
        "eccentricity" : ".007522355099367976",
        "semi_major_axis" : "1.015422525355288",
        "inclination" : "11.23221987664612",
        "ascending_node_longitude" : "120.8431101168368",
        "orbital_period" : "373.7391699479398",
        "perihelion_distance" : "1.007784156543668",
        "perihelion_argument" : "15.57689542286544",
        "aphelion_distance" : "1.023060894166907",
        "perihelion_time" : "2458161.803038158102",
        "mean_anomaly" : "204.6266851157035",
        "mean_motion" : ".9632386138443728",
        "equinox" : "J2000"
      }
    } ]
  }
}